TEVEL2-6                
1 63215U 25052F   26068.64958975  .00021046  00000+0  70909-3 0  9996
2 63215  97.4016 325.0381 0004769  95.6604 264.5181 15.30760889 54861
STARLINK-34308          
1 64258U 25120C   26068.53390976  .00023263  00000+0  79508-3 0  9996
2 64258  53.1588 117.3241 0001441  64.5861 295.5289 15.30200209 43847
